FENGYUN 1C DEB          
1 30916U 99025AZE 17344.99627240  .00000306  00000-0  22941-3 0  9992
2 30916  99.2709 345.4750 0078236  58.4054 357.0776 14.00764216548448
